{"fetched_at":"2026-03-29T16:36:15Z","count":15609,"tles":[{"name":"STARLINK-31479","line1":"1 59316U 24056W   26087.56302591 -.00000164  00000+0  35672-5 0  9994","line2":"2 59316  43.0030 128.1897 0000910 247.3599 112.7156 15.27582925113993","category":"Starlink"}]}